OBJECT_NAME,OBJECT_ID,EPOCH,MEAN_MOTION,ECCENTRICITY,INCLINATION,RA_OF_ASC_NODE,ARG_OF_PERICENTER,MEAN_ANOMALY,EPHEMERIS_TYPE,CLASSIFICATION_TYPE,NORAD_CAT_ID,ELEMENT_SET_NO,REV_AT_EPOCH,BSTAR,MEAN_MOTION_DOT,MEAN_MOTION_DDOT
STARLINK-4553,2022-101BC,2026-07-11T12:00:02.000160,15.35375014,.0001439,53.1596,215.6000,77.7146,212.2709,0,U,53577,999,553,.13888E-2,.48334E-3,0
STARLINK-4556,2022-101BD,2026-07-11T12:00:02.000160,15.35081440,.0001569,53.1600,215.6345,92.1803,182.1469,0,U,53578,999,583,.26369E-2,.91787E-3,0
STARLINK-4580,2022-101BE,2026-07-11T12:00:02.000160,15.33518582,.0001114,53.1602,215.6626,76.5766,180.7372,0,U,53579,999,568,.15664E-2,.51447E-3,0
CHUANGXIN 16A (CX-16A),2022-102A,2026-07-11T09:07:54.306624,15.06002398,.0004695,28.9940,167.6547,265.9483,94.0580,0,U,53586,999,21317,.67048E-4,.116E-4,0
BEIJING-3B,2022-103A,2026-07-11T12:06:57.769920,14.87243669,.0024074,97.8006,269.4965,337.3112,22.7038,0,U,53587,999,21070,.68322E-4,.563E-5,0
STARLINK-4691,2022-104A,2026-07-10T23:28:05.110752,15.08838109,.0001296,53.1613,50.6706,103.4386,256.6750,0,U,53588,999,21470,.83315E-4,.1038E-4,0
STARLINK-4673,2022-104B,2026-07-11T12:00:02.000160,15.31346473,.0001345,53.1607,45.7633,67.1874,128.1518,0,U,53589,999,553,.27704E-2,.85643E-3,0
STARLINK-4689,2022-104C,2026-07-11T12:00:02.000160,15.66718507,.0000689,53.2198,23.6435,96.7462,310.3264,0,U,53590,999,584,-.85E-2,-.824953E-2,0
STARLINK-4674,2022-104D,2026-07-11T12:00:02.000160,15.20956520,.0001527,53.1598,47.5466,134.5366,225.0739,0,U,53591,999,583,.35545E-2,.80268E-3,0
STARLINK-4672,2022-104E,2026-07-11T12:00:02.000160,15.29224740,.0001423,53.1608,45.8683,98.8099,44.3491,0,U,53592,999,584,.2918E-2,.84464E-3,0
STARLINK-4684,2022-104H,2026-07-10T05:01:10.053696,15.29328134,.00013123,53.1611,52.3031,96.5333,263.5817,0,U,53595,999,21446,-.75791821E-4,-.254E-4,0
STARLINK-4676,2022-104L,2026-07-09T08:44:36.135168,15.12131662,.00012647,53.1599,56.9754,69.3653,290.7476,0,U,53598,999,21399,.18612471E-3,.2948E-4,0
STARLINK-4677,2022-104N,2026-07-11T12:00:02.000160,15.23055506,.0001958,53.1602,47.8131,100.4163,116.6887,0,U,53600,999,553,.31176E-2,.74804E-3,0
STARLINK-4675,2022-104P,2026-07-11T12:00:02.000160,15.30270613,.0000854,53.1593,46.0534,121.4529,283.8588,0,U,53601,999,583,.30019E-2,.89824E-3,0
STARLINK-4648,2022-104Q,2026-07-10T00:28:14.858688,15.08846574,.00012868,53.1601,49.6694,80.6070,279.5067,0,U,53602,999,21415,.10022997E-3,.1308E-4,0
STARLINK-4692,2022-104R,2026-07-10T23:15:29.026080,15.08831433,.0001596,53.1611,45.6365,92.6261,267.4913,0,U,53603,999,21429,.38219E-4,.32E-5,0
STARLINK-4690,2022-104S,2026-07-11T12:00:02.000160,15.12143761,.0002049,53.1610,42.8830,79.9623,111.7219,0,U,53604,999,583,.44297E-2,.77786E-3,0
STARLINK-4590,2022-104U,2026-07-11T12:00:02.000160,15.13180881,.0001331,53.1593,38.1404,92.4829,326.2521,0,U,53606,999,564,.44092E-2,.79724E-3,0
STARLINK-4591,2022-104V,2026-07-10T23:57:31.506048,15.34398158,.000109,53.1613,41.6015,81.1448,278.9678,0,U,53607,999,21435,-.52105E-5,-.552E-5,0
STARLINK-4647,2022-104W,2026-07-11T12:00:02.000160,15.12352401,.0001132,53.1597,38.2393,66.3426,301.9709,0,U,53608,999,583,.48372E-2,.85557E-3,0
STARLINK-4660,2022-104X,2026-07-11T12:00:02.000160,15.35368109,.0001022,53.1594,39.4870,82.2157,55.2344,0,U,53609,999,568,.15132E-2,.52718E-3,0
STARLINK-4610,2022-104Y,2026-07-10T23:09:34.296192,15.08835952,.0001107,53.1607,40.6083,100.3407,259.7709,0,U,53610,999,21424,-.63119E-4,-.1292E-4,0
STARLINK-4658,2022-104AA,2026-07-11T02:12:30.536640,15.09522813,.0000892,53.1603,39.9777,92.3115,267.7979,0,U,53612,999,21426,.52911E-2,.86565E-3,0
STARLINK-4655,2022-104AB,2026-07-11T03:59:31.689600,15.08905910,.0002119,53.1623,39.7336,96.4356,263.6877,0,U,53613,999,21427,.61685E-3,.9561E-4,0
STARLINK-4605,2022-104AE,2026-07-10T22:58:51.851712,15.08842441,.0001209,53.1606,30.3880,102.1122,258.0005,0,U,53616,999,21449,-.55964E-4,-.1179E-4,0
STARLINK-4609,2022-104AH,2026-07-10T22:52:16.029120,15.08829166,.0001056,53.1610,40.5296,94.4522,265.6590,0,U,53619,999,21424,-.24178E-4,-.673E-5,0
STARLINK-4615,2022-104AJ,2026-07-08T21:14:06.095328,15.08835804,.00013391,53.1608,49.6720,100.8148,259.2994,0,U,53620,999,21404,.12897158E-3,.1765E-4,0
STARLINK-4608,2022-104AK,2026-07-10T22:46:57.521568,15.08842854,.0001103,53.1606,40.5069,86.8712,273.2406,0,U,53621,999,21424,.20896E-5,-.255E-5,0
STARLINK-4568,2022-104AL,2026-07-10T23:34:35.521248,15.08844094,.0001312,53.1614,40.0075,112.7166,247.3964,0,U,53622,999,21436,.88723E-5,-.147E-5,0
STARLINK-4573,2022-104AM,2026-07-11T00:05:58.125408,15.31700552,.0001194,53.1619,36.6343,76.2891,283.8243,0,U,53623,999,21441,.45318E-4,.1041E-4,0
