STARLINK-4553           
1 53577U 22101BC  26192.50002315  .00048334  00000+0  13888-2 0  9990
2 53577  53.1596 215.6000 0001439  77.7146 212.2709 15.35375014  5531
STARLINK-4556           
1 53578U 22101BD  26192.50002315  .00091787  00000+0  26369-2 0  9999
2 53578  53.1600 215.6345 0001569  92.1803 182.1469 15.35081440  5833
STARLINK-4580           
1 53579U 22101BE  26192.50002315  .00051447  00000+0  15664-2 0  9995
2 53579  53.1602 215.6626 0001114  76.5766 180.7372 15.33518582  5688
CHUANGXIN 16A (CX-16A)  
1 53586U 22102A   26192.38048966  .00001160  00000+0  67048-4 0  9994
2 53586  28.9940 167.6547 0004695 265.9483  94.0580 15.06002398213172
BEIJING-3B              
1 53587U 22103A   26192.50483530  .00000563  00000+0  68322-4 0  9992
2 53587  97.8006 269.4965 0024074 337.3112  22.7038 14.87243669210700
STARLINK-4691           
1 53588U 22104A   26191.97783693  .00001038  00000+0  83315-4 0  9994
2 53588  53.1613  50.6706 0001296 103.4386 256.6750 15.08838109214705
STARLINK-4673           
1 53589U 22104B   26192.50002315  .00085643  00000+0  27704-2 0  9992
2 53589  53.1607  45.7633 0001345  67.1874 128.1518 15.31346473  5534
STARLINK-4689           
1 53590U 22104C   26192.50002315 -.00824953  00000+0 -85000-2 0  9994
2 53590  53.2198  23.6435 0000689  96.7462 310.3264 15.66718507  5844
STARLINK-4674           
1 53591U 22104D   26192.50002315  .00080268  00000+0  35545-2 0  9995
2 53591  53.1598  47.5466 0001527 134.5366 225.0739 15.20956520  5830
STARLINK-4672           
1 53592U 22104E   26192.50002315  .00084464  00000+0  29180-2 0  9996
2 53592  53.1608  45.8683 0001423  98.8099  44.3491 15.29224740  5844
STARLINK-4684           
1 53595U 22104H   26191.20914414 -.00002540  00000+0 -75792-4 0  9996
2 53595  53.1611  52.3031 0001312  96.5333 263.5817 15.29328134214463
STARLINK-4676           
1 53598U 22104L   26190.36430712  .00002948  00000+0  18612-3 0  9996
2 53598  53.1599  56.9754 0001264  69.3653 290.7476 15.12131662213992
STARLINK-4677           
1 53600U 22104N   26192.50002315  .00074804  00000+0  31176-2 0  9991
2 53600  53.1602  47.8131 0001958 100.4163 116.6887 15.23055506  5537
STARLINK-4675           
1 53601U 22104P   26192.50002315  .00089824  00000+0  30019-2 0  9995
2 53601  53.1593  46.0534 0000854 121.4529 283.8588 15.30270613  5832
STARLINK-4648           
1 53602U 22104Q   26191.01961642  .00001308  00000+0  10023-3 0  9993
2 53602  53.1601  49.6694 0001286  80.6070 279.5067 15.08846574214157
STARLINK-4692           
1 53603U 22104R   26191.96908595  .00000320  00000+0  38219-4 0  9997
2 53603  53.1611  45.6365 0001596  92.6261 267.4913 15.08831433214298
STARLINK-4690           
1 53604U 22104S   26192.50002315  .00077786  00000+0  44297-2 0  9995
2 53604  53.1610  42.8830 0002049  79.9623 111.7219 15.12143761  5831
STARLINK-4590           
1 53606U 22104U   26192.50002315  .00079724  00000+0  44092-2 0  9994
2 53606  53.1593  38.1404 0001331  92.4829 326.2521 15.13180881  5642
STARLINK-4591           
1 53607U 22104V   26191.99828132 -.00000552  00000+0 -52105-5 0  9992
2 53607  53.1613  41.6015 0001090  81.1448 278.9678 15.34398158214354
STARLINK-4647           
1 53608U 22104W   26192.50002315  .00085557  00000+0  48372-2 0  9992
2 53608  53.1597  38.2393 0001132  66.3426 301.9709 15.12352401  5835
STARLINK-4660           
1 53609U 22104X   26192.50002315  .00052718  00000+0  15132-2 0  9994
2 53609  53.1594  39.4870 0001022  82.2157  55.2344 15.35368109  5686
STARLINK-4610           
1 53610U 22104Y   26191.96498028 -.00001292  00000+0 -63119-4 0  9998
2 53610  53.1607  40.6083 0001107 100.3407 259.7709 15.08835952214242
STARLINK-4658           
1 53612U 22104AA  26192.09202010  .00086565  00000+0  52911-2 0  9999
2 53612  53.1603  39.9777 0000892  92.3115 267.7979 15.09522813214267
STARLINK-4655           
1 53613U 22104AB  26192.16633900  .00009561  00000+0  61685-3 0  9994
2 53613  53.1623  39.7336 0002119  96.4356 263.6877 15.08905910214270
STARLINK-4605           
1 53616U 22104AE  26191.95754458 -.00001179  00000+0 -55964-4 0  9998
2 53616  53.1606  30.3880 0001209 102.1122 258.0005 15.08842441214494
STARLINK-4609           
1 53619U 22104AH  26191.95296330 -.00000673  00000+0 -24178-4 0  9992
2 53619  53.1610  40.5296 0001056  94.4522 265.6590 15.08829166214248
STARLINK-4615           
1 53620U 22104AJ  26189.88479277  .00001765  00000+0  12897-3 0  9991
2 53620  53.1608  49.6720 0001339 100.8148 259.2994 15.08835804214040
STARLINK-4608           
1 53621U 22104AK  26191.94927687 -.00000255  00000+0  20896-5 0  9999
2 53621  53.1606  40.5069 0001103  86.8712 273.2406 15.08842854214243
STARLINK-4568           
1 53622U 22104AL  26191.98235557 -.00000147  00000+0  88723-5 0  9995
2 53622  53.1614  40.0075 0001312 112.7166 247.3964 15.08844094214361
STARLINK-4573           
1 53623U 22104AM  26192.00414497  .00001041  00000+0  45318-4 0  9997
2 53623  53.1619  36.6343 0001194  76.2891 283.8243 15.31700552214410
